#aV2012 11  8  0  0  0.00000000     288 DD+AD WGS84 FIT  NGA
## 1713 345600.00000000   300.00000000 56239 0.0000000000000
+   31     1  2  3  4  5  6  7  8  9 10 11 12 13 14 15 16 17
+         18 19 20 21 22 23 24 25 26 28 29 30 31 32  0  0  0
+          0  0  0  0  0  0  0  0  0  0  0  0  0  0  0  0  0
+          0  0  0  0  0  0  0  0  0  0  0  0  0  0  0  0  0
+          0  0  0  0  0  0  0  0  0  0  0  0  0  0  0  0  0
++         2  2  2  2  2  2  2  2  2  2  2  2  2  2  2  2  2
++         2  2  2  2  2  2  2  2  2  2  2  2  2  2  2  0  0
++         0  0  0  0  0  0  0  0  0  0  0  0  0  0  0  0  0
++         0  0  0  0  0  0  0  0  0  0  0  0  0  0  0  0  0
++         0  0  0  0  0  0  0  0  0  0  0  0  0  0  0  0  0
%c cc cc ccc ccc cccc cccc cccc cccc ccccc ccccc ccccc ccccc
%c cc cc ccc ccc cccc cccc cccc cccc ccccc ccccc ccccc ccccc
%f  0.0000000  0.000000000  0.00000000000  0.000000000000000
%f  0.0000000  0.000000000  0.00000000000  0.000000000000000
%i    0    0    0    0      0      0      0      0         0
%i    0    0    0    0      0      0      0      0         0
/*      NGA, ST. LOUIS,MO.                                  
/*   EPHEMERIS COMPUTED FROM  1 DAYS OF DATA
/*   EPOCHA SMOOTHER  
/* CCCCCCCCCCCCCCCCCCCCCCCCCCCCCCCCCCCCCCCCCCCCCCCCCCCCCCCCC
*  2012 11  8  7  5  0.00000000                                                 
P  1 -18332.498108 -14005.443250 -13236.459373    281.455049                    
V  1  16798.121479   1814.665198 -25169.179612      0.018002                    
P  2  -2714.492514  15551.374667  21521.683619    408.303475                    
V  2 -26351.115445  -6087.121004    573.879271      0.010971                    
P  3   5741.689855 -23126.355193 -11977.203660    125.480072                    
V  3  11089.103964 -10003.571311  25948.975174      0.052527                    
P  4 -18876.748265   8059.688284  16741.646011     39.909234                    
V  4 -20627.162415  -7171.209130 -19188.471026      0.112688                    
P  5   1302.680242  25160.625250   8154.805436   -365.113041                    
V  5  -5855.712783  -9166.398736  29266.537843     -0.025738                    
P  6  12046.543811 -22324.707875  -7182.687470    463.355646                    
V  6   8793.726199  -4817.091277  29642.437923     -0.115157                    
P  7 -25901.323523  -6542.058066   -427.612548    142.968387                    
V  7    -28.723422  -2180.737461  31886.902213      0.045171                    
P  8 -23645.182063    119.939958 -12585.732698      2.749475                    
V  8 -14603.656579  -6255.849352  26597.483094      0.001244                    
P  9  13912.817390  15140.639530 -17322.842997    198.196847                    
V  9 -20619.993337  -3686.054914 -20497.773168      0.025990                    
P 10 -11425.973174  12799.529687  19897.240620    -57.783048                    
V 10  -8208.812053 -24749.043747  11463.644632     -0.012579                    
P 11 -13554.456263 -14330.227457 -18326.528483   -320.997385                    
V 11  22529.285457  -3133.753757 -14247.960087     -0.038807                    
P 12  11702.506598  22393.881010   8479.077112    100.473101                    
V 12    934.501060  10829.450235 -29640.102140      0.020386                    
P 13 -18234.909613  -1140.690125  19184.678787    168.768700                    
V 13  17946.580633 -16781.834952  15840.590783     -0.026731                    
P 14  21638.534438 -13670.297690  -6608.291541    216.353929                    
V 14  -4815.862396   7588.674573 -30700.503238      0.006839                    
P 15   3524.575036  17371.269640 -19718.971502    -99.132064                    
V 15 -18012.139949  17615.151124  12536.773983     -0.009139                    
P 16   -360.362134 -25054.127837   8309.310585   -249.231960                    
V 16   4646.451171   9805.253407  30050.716782     -0.005697                    
P 17 -21143.978119  14549.211626  -6130.983218     80.582281                    
V 17   3818.224669  -7669.755125 -30680.081859     -0.034622                    
P 18  16741.812298   4893.233721 -19738.077347    223.574122                    
V 18   5933.726986  25273.930739  10735.258930      0.018441                    
P 19    276.982123 -18148.980360 -19322.734579   -320.227369                    
V 19  19458.660488 -14980.082807  14799.024985     -0.034330                    
P 20 -14304.812450 -20358.229722   9230.314653     72.743766                    
V 20   -683.924083 -12440.755174 -27920.807033      0.010981                    
P 21  26290.118404   4123.709736  -3136.093664   -260.880583                    
V 21   3632.905111   4279.452295  30400.835753     -0.023421                    
P 22  12925.148617 -10635.741415 -20412.476823    150.870514                    
V 22   8245.634161  25209.693907  -7969.570559      0.007941                    
P 23  -9778.909921 -11828.854630  21717.457702    146.172600                    
V 23  19506.544134 -19343.255935  -2136.857170     -0.038681                    
P 24  13700.366187  15433.251657 -16905.100905      4.232273                    
V 24 -21099.444606  -3231.590163 -20040.671250      0.004241                    
P 25  16059.989626  11883.976321  17496.167484     50.101750                    
V 25   4976.781989  21727.409115 -19217.993062      0.018246                    
P 26  -8979.368930  20644.850439 -14424.714038   -217.719622                    
V 26 -14204.014165  10123.352159  24738.014970      0.135723                    
P 28 -13377.949390   6074.325044 -21545.071995    202.631126                    
V 28  -6924.370942 -27845.033147  -3665.589781      0.036610                    
P 29  17023.868477   3130.026794  20185.506331    374.746191                    
V 29 -17762.208790  18352.771597  12202.889906      0.040808                    
P 30   5062.757834 -19351.455131  17131.266542   -329.840401                    
V 30  10057.260433  20135.916954  19349.931751      0.157125                    
P 31  15548.230719  -9443.428705  19635.820527    285.498523                    
V 31  23331.456152   7124.446547 -14951.407525      0.021787                    
P 32  -6571.652408 -25960.265238   1936.877835   -505.884934                    
V 32   2197.362338  -2697.014521 -31080.440564     -0.035585                    
EOF
